OBJECT_NAME,OBJECT_ID,EPOCH,MEAN_MOTION,ECCENTRICITY,INCLINATION,RA_OF_ASC_NODE,ARG_OF_PERICENTER,MEAN_ANOMALY,EPHEMERIS_TYPE,CLASSIFICATION_TYPE,NORAD_CAT_ID,ELEMENT_SET_NO,REV_AT_EPOCH,BSTAR,MEAN_MOTION_DOT,MEAN_MOTION_DDOT
GSAT-29,2018-089A,2026-07-08T13:57:26.294112,1.00273834,.00031715,0.0590,256.6999,185.2031,109.0436,0,U,43698,999,2800,0,.99E-6,0
ES'HAIL 2,2018-090A,2026-07-08T12:06:41.767776,1.00272839,.00023556,0.0117,316.5020,198.0561,339.3889,0,U,43700,999,2789,0,.159E-5,0
GEO-KOMPSAT-2A,2018-100A,2026-07-08T12:24:31.970016,1.00270456,.00022991,0.0277,148.8754,311.3058,140.6822,0,U,43823,999,2784,0,-.329E-5,0
GSAT-11,2018-100B,2026-07-08T14:03:07.402176,1.00271081,.00078038,0.0657,264.3670,191.9453,115.0179,0,U,43824,999,2769,0,-.62E-6,0
GSAT-7A,2018-105A,2026-07-08T12:17:10.763232,1.00269679,.0001776,0.0670,92.9902,11.4727,69.0663,0,U,43864,999,2766,0,.42E-6,0
COSMOS 2533,2018-107A,2026-07-07T20:44:21.541344,1.00267650,.0000075,0.0391,113.0015,203.4581,350.4542,0,U,43867,999,2765,0,-.22E-6,0
TJS-3,2018-110A,2026-07-08T18:00:26.421120,1.00273536,.000245,2.5971,80.2345,85.6886,179.0807,0,U,43874,999,2763,0,-.204E-5,0
ZHONGXING-2D,2019-001A,2026-07-08T16:20:36.909600,1.00269483,.0000391,0.0660,242.2130,66.5715,352.9522,0,U,43920,999,5429,0,-.323E-5,0
HELLAS-SAT 4 & SGS-1,2019-007A,2026-07-08T13:53:04.212672,1.00270918,.00058074,0.0634,130.8121,15.2271,27.7762,0,U,44034,999,2758,0,.167E-5,0
GSAT-31,2019-007B,2026-07-08T03:39:45.873792,1.00273020,.00002559,0.0055,9.8577,242.3794,136.7133,0,U,44035,999,2717,0,.14E-5,0
NUSANTARA SATU,2019-009A,2026-07-08T10:58:13.605888,1.00270085,.00046103,0.0332,128.8476,356.6419,111.4803,0,U,44048,999,2698,0,-.22E-5,0
ZHONGXING-6C,2019-012A,2026-07-08T19:27:06.628032,1.00274171,.0014683,0.0750,73.2403,340.2786,295.4487,0,U,44067,999,2695,0,-.321E-5,0
WGS 10 (USA 291),2019-014A,2026-07-08T00:17:52.401120,1.00272451,.00000747,0.0190,43.8038,191.4714,115.4681,0,U,44071,999,2682,0,.62E-6,0
TIANLIAN 2-01,2019-017A,2026-07-08T14:11:32.473248,1.00271235,.00013863,0.5920,83.0842,71.6247,61.7437,0,U,44076,999,2686,0,-.92E-6,0
ARABSAT-6A,2019-021A,2026-07-08T12:07:56.648928,1.00267586,.00014355,0.0456,5.4750,261.1122,232.3358,0,U,44186,999,2637,0,.168E-5,0
BEIDOU-3 IGSO-1,2019-023A,2026-07-08T11:34:14.074176,1.00285216,.0025583,58.7247,37.4318,224.0549,317.4664,0,U,44204,999,742,0,-.209E-5,0
BEIDOU-2 G8,2019-027A,2026-07-08T12:40:22.558368,1.00274380,.00098901,1.7088,74.5140,284.3806,262.1753,0,U,44231,999,2629,0,-.233E-5,0
AT&T T-16,2019-034A,2026-07-07T21:49:16.444704,1.00268746,.000049,0.0156,67.5942,240.6770,204.0501,0,U,44333,999,2584,0,-.1E-5,0
EUTELSAT 7C,2019-034B,2026-07-08T08:36:02.577024,1.00270664,.00032351,0.0756,179.8700,274.1432,328.3248,0,U,44334,999,704,0,.63E-6,0
BEIDOU-3 IGSO-2,2019-035A,2026-07-08T07:25:36.583680,1.00259890,.00396086,55.2505,158.6776,216.3649,141.5142,0,U,44337,999,2587,0,-.73E-6,0
COSMOS 2539,2019-048A,2026-07-08T08:37:24.944736,1.00269854,.00003201,0.0338,101.3408,51.2749,275.0457,0,U,44457,999,2543,0,.96E-6,0
EDRS-C,2019-049A,2026-07-08T14:39:51.575040,1.00267349,.00008365,0.0113,44.5363,76.7655,167.7184,0,U,44475,999,2542,0,0,0
INTELSAT 39 (IS-39),2019-049B,2026-07-08T12:16:55.786656,1.00269795,.00008428,0.0241,27.9038,293.9164,210.8217,0,U,44476,999,2534,0,0,0
AMOS-17,2019-050A,2026-07-08T06:56:09.408192,1.00271058,.00014242,0.0214,330.9476,138.7012,297.6106,0,U,44479,999,2539,0,.124E-5,0
AEHF-5 (USA 292),2019-051A,2026-07-08T14:08:14.410752,1.00266744,.0065476,1.4356,337.7958,358.5703,255.2232,0,U,44481,999,2547,0,-.241E-5,0
EUTELSAT 5 WEST B,2019-067A,2026-07-08T08:32:32.911872,1.00271321,.00031243,0.0645,342.2991,126.4907,300.6528,0,U,44624,999,2464,0,-.27E-6,0
MEV-1,2019-067B,2026-06-16T22:18:40.152960,1.00269616,.00027946,0.8740,268.9828,179.8034,307.2103,0,U,44625,999,6174,0,-.149E-5,0
TJS-4,2019-070A,2026-07-08T14:05:52.139328,1.00270388,.00034522,0.0665,87.2586,320.6453,173.6489,0,U,44637,999,2475,0,-.155E-5,0
TIBA-1,2019-080A,2026-07-08T10:26:40.128288,1.00275239,.00021803,0.0502,355.3027,135.5385,347.7477,0,U,44800,999,2427,0,.171E-5,0
INMARSAT GX5,2019-080B,2026-07-08T12:02:19.687200,1.00271530,.00021078,0.0369,21.3366,82.0376,14.6759,0,U,44801,999,700,0,.89E-6,0
JCSAT-18 (KACIFIC 1),2019-091A,2026-07-07T16:10:17.016384,1.00271592,.00003927,0.0442,223.8283,348.1645,106.2106,0,U,44868,999,2421,0,-.185E-5,0
