GSAT-29                 
1 43698U 18089A   26189.58155433  .00000099  00000+0  00000+0 0  9992
2 43698   0.0590 256.6999 0003171 185.2031 109.0436  1.00273834 28005
ES'HAIL 2               
1 43700U 18090A   26189.50465009  .00000159  00000+0  00000+0 0  9990
2 43700   0.0117 316.5020 0002355 198.0561 339.3889  1.00272839 27898
GEO-KOMPSAT-2A          
1 43823U 18100A   26189.51703669 -.00000329  00000+0  00000+0 0  9996
2 43823   0.0277 148.8754 0002299 311.3058 140.6822  1.00270456 27847
GSAT-11                 
1 43824U 18100B   26189.58550234 -.00000062  00000+0  00000+0 0  9996
2 43824   0.0657 264.3670 0007803 191.9453 115.0179  1.00271081 27697
GSAT-7A                 
1 43864U 18105A   26189.51193013  .00000042  00000+0  00000+0 0  9993
2 43864   0.0670  92.9902 0001776  11.4727  69.0663  1.00269679 27665
COSMOS 2533             
1 43867U 18107A   26188.86413821 -.00000022  00000+0  00000+0 0  9996
2 43867   0.0391 113.0015 0000075 203.4581 350.4542  1.00267650 27659
TJS-3                   
1 43874U 18110A   26189.75030580 -.00000204  00000+0  00000+0 0  9996
2 43874   2.5971  80.2345 0002450  85.6886 179.0807  1.00273536 27633
ZHONGXING-2D            
1 43920U 19001A   26189.68098275 -.00000323  00000+0  00000+0 0  9997
2 43920   0.0660 242.2130 0000391  66.5715 352.9522  1.00269483 54290
HELLAS-SAT 4 & SGS-1    
1 44034U 19007A   26189.57852098  .00000167  00000+0  00000+0 0  9994
2 44034   0.0634 130.8121 0005807  15.2271  27.7762  1.00270918 27585
GSAT-31                 
1 44035U 19007B   26189.15261428  .00000140  00000+0  00000+0 0  9991
2 44035   0.0055   9.8577 0000255 242.3794 136.7133  1.00273020 27173
NUSANTARA SATU          
1 44048U 19009A   26189.45710192 -.00000220  00000+0  00000+0 0  9997
2 44048   0.0332 128.8476 0004610 356.6419 111.4803  1.00270085 26987
ZHONGXING-6C            
1 44067U 19012A   26189.81049338 -.00000321  00000+0  00000+0 0  9991
2 44067   0.0750  73.2403 0014683 340.2786 295.4487  1.00274171 26950
WGS 10 (USA 291)        
1 44071U 19014A   26189.01241205  .00000062  00000+0  00000+0 0  9998
2 44071   0.0190  43.8038 0000074 191.4714 115.4681  1.00272451 26828
TIANLIAN 2-01           
1 44076U 19017A   26189.59134807 -.00000092  00000+0  00000+0 0  9992
2 44076   0.5920  83.0842 0001386  71.6247  61.7437  1.00271235 26860
ARABSAT-6A              
1 44186U 19021A   26189.50551677  .00000168  00000+0  00000+0 0  9991
2 44186   0.0456   5.4750 0001435 261.1122 232.3358  1.00267586 26378
BEIDOU-3 IGSO-1         
1 44204U 19023A   26189.48210734 -.00000209  00000+0  00000+0 0  9994
2 44204  58.7247  37.4318 0025583 224.0549 317.4664  1.00285216  7423
BEIDOU-2 G8             
1 44231U 19027A   26189.52803887 -.00000233  00000+0  00000+0 0  9997
2 44231   1.7088  74.5140 0009890 284.3806 262.1753  1.00274380 26298
AT&T T-16               
1 44333U 19034A   26188.90921811 -.00000100  00000+0  00000+0 0  9990
2 44333   0.0156  67.5942 0000490 240.6770 204.0501  1.00268746 25848
EUTELSAT 7C             
1 44334U 19034B   26189.35836316  .00000063  00000+0  00000+0 0  9993
2 44334   0.0756 179.8700 0003235 274.1432 328.3248  1.00270664  7043
BEIDOU-3 IGSO-2         
1 44337U 19035A   26189.30945120 -.00000073  00000+0  00000+0 0  9998
2 44337  55.2505 158.6776 0039608 216.3649 141.5142  1.00259890 25876
COSMOS 2539             
1 44457U 19048A   26189.35931649  .00000096  00000+0  00000+0 0  9995
2 44457   0.0338 101.3408 0000320  51.2749 275.0457  1.00269854 25439
EDRS-C                  
1 44475U 19049A   26189.61101360  .00000000  00000+0  00000+0 0  9999
2 44475   0.0113  44.5363 0000836  76.7655 167.7184  1.00267349 25428
INTELSAT 39 (IS-39)     
1 44476U 19049B   26189.51175679  .00000000  00000+0  00000+0 0  9993
2 44476   0.0241  27.9038 0000842 293.9164 210.8217  1.00269795 25345
AMOS-17                 
1 44479U 19050A   26189.28899778  .00000124  00000+0  00000+0 0  9992
2 44479   0.0214 330.9476 0001424 138.7012 297.6106  1.00271058 25396
AEHF-5 (USA 292)        
1 44481U 19051A   26189.58905568 -.00000241  00000+0  00000+0 0  9995
2 44481   1.4356 337.7958 0065476 358.5703 255.2232  1.00266744 25472
EUTELSAT 5 WEST B       
1 44624U 19067A   26189.35593648 -.00000027  00000+0  00000+0 0  9990
2 44624   0.0645 342.2991 0003124 126.4907 300.6528  1.00271321 24643
MEV-1                   
1 44625U 19067B   26167.92963140 -.00000149  00000+0  00000+0 0  9993
2 44625   0.8740 268.9828 0002794 179.8034 307.2103  1.00269616 61744
TJS-4                   
1 44637U 19070A   26189.58740902 -.00000155  00000+0  00000+0 0  9992
2 44637   0.0665  87.2586 0003452 320.6453 173.6489  1.00270388 24751
TIBA-1                  
1 44800U 19080A   26189.43518667  .00000171  00000+0  00000+0 0  9997
2 44800   0.0502 355.3027 0002180 135.5385 347.7477  1.00275239 24274
INMARSAT GX5            
1 44801U 19080B   26189.50161675  .00000089  00000+0  00000+0 0  9997
2 44801   0.0369  21.3366 0002107  82.0376  14.6759  1.00271530  7002
JCSAT-18 (KACIFIC 1)    
1 44868U 19091A   26188.67380806 -.00000185  00000+0  00000+0 0  9996
2 44868   0.0442 223.8283 0000392 348.1645 106.2106  1.00271592 24217
